CCSDS_OMM_VERS = 2.0
CREATION_DATE  = 
ORIGINATOR     = 

OBJECT_NAME    = SOYUZ-MS 28
OBJECT_ID      = 2025-275A
CENTER_NAME    = EARTH
REF_FRAME      = TEME
TIME_SYSTEM    = UTC
MEAN_ELEMENT_THEORY = SGP/SGP4

EPOCH          = 2025-12-19T18:20:02.854752
MEAN_MOTION    = 15.49672026
ECCENTRICITY   = .0003187
INCLINATION    = 51.6318
RA_OF_ASC_NODE = 107.6945
ARG_OF_PERICENTER = 273.0117
MEAN_ANOMALY   = 87.0507

EPHEMERIS_TYPE = 0
CLASSIFICATION_TYPE = U
NORAD_CAT_ID   = 66664
ELEMENT_SET_NO = 999
REV_AT_EPOCH   = 353
BSTAR          = .12626E-3
MEAN_MOTION_DOT = .6675E-4
MEAN_MOTION_DDOT = 0

CCSDS_OMM_VERS = 2.0
CREATION_DATE  = 
ORIGINATOR     = 

OBJECT_NAME    = 1998-067XS
OBJECT_ID      = 1998-067XS
CENTER_NAME    = EARTH
REF_FRAME      = TEME
TIME_SYSTEM    = UTC
MEAN_ELEMENT_THEORY = SGP/SGP4

EPOCH          = 2025-12-19T19:37:45.032448
MEAN_MOTION    = 15.50933488
ECCENTRICITY   = .00029661
INCLINATION    = 51.6311
RA_OF_ASC_NODE = 107.3061
ARG_OF_PERICENTER = 238.2809
MEAN_ANOMALY   = 121.7891

EPHEMERIS_TYPE = 0
CLASSIFICATION_TYPE = U
NORAD_CAT_ID   = 66906
ELEMENT_SET_NO = 999
REV_AT_EPOCH   = 271
BSTAR          = .34986922E-3
MEAN_MOTION_DOT = .20233E-3
MEAN_MOTION_DDOT = 0

CCSDS_OMM_VERS = 2.0
CREATION_DATE  = 
ORIGINATOR     = 

OBJECT_NAME    = 1998-067XT
OBJECT_ID      = 1998-067XT
CENTER_NAME    = EARTH
REF_FRAME      = TEME
TIME_SYSTEM    = UTC
MEAN_ELEMENT_THEORY = SGP/SGP4

EPOCH          = 2025-12-19T11:42:50.767776
MEAN_MOTION    = 15.52255247
ECCENTRICITY   = .0003998
INCLINATION    = 51.6306
RA_OF_ASC_NODE = 108.8528
ARG_OF_PERICENTER = 265.7173
MEAN_ANOMALY   = 94.3360

EPHEMERIS_TYPE = 0
CLASSIFICATION_TYPE = U
NORAD_CAT_ID   = 66907
ELEMENT_SET_NO = 999
REV_AT_EPOCH   = 266
BSTAR          = .77339E-3
MEAN_MOTION_DOT = .47666E-3
MEAN_MOTION_DDOT = 0

CCSDS_OMM_VERS = 2.0
CREATION_DATE  = 
ORIGINATOR     = 

OBJECT_NAME    = 1998-067XU
OBJECT_ID      = 1998-067XU
CENTER_NAME    = EARTH
REF_FRAME      = TEME
TIME_SYSTEM    = UTC
MEAN_ELEMENT_THEORY = SGP/SGP4

EPOCH          = 2025-12-18T14:03:56.443680
MEAN_MOTION    = 15.52259493
ECCENTRICITY   = .00039838
INCLINATION    = 51.6306
RA_OF_ASC_NODE = 113.3296
ARG_OF_PERICENTER = 260.0245
MEAN_ANOMALY   = 100.0295

EPHEMERIS_TYPE = 0
CLASSIFICATION_TYPE = U
NORAD_CAT_ID   = 66908
ELEMENT_SET_NO = 999
REV_AT_EPOCH   = 252
BSTAR          = .87908108E-3
MEAN_MOTION_DOT = .54298E-3
MEAN_MOTION_DDOT = 0

CCSDS_OMM_VERS = 2.0
CREATION_DATE  = 
ORIGINATOR     = 

OBJECT_NAME    = SILVERSAT
OBJECT_ID      = 1998-067XV
CENTER_NAME    = EARTH
REF_FRAME      = TEME
TIME_SYSTEM    = UTC
MEAN_ELEMENT_THEORY = SGP/SGP4

EPOCH          = 2025-12-19T13:13:09.424128
MEAN_MOTION    = 15.52516520
ECCENTRICITY   = .0003839
INCLINATION    = 51.6306
RA_OF_ASC_NODE = 108.5226
ARG_OF_PERICENTER = 268.6960
MEAN_ANOMALY   = 91.3590

EPHEMERIS_TYPE = 0
CLASSIFICATION_TYPE = U
NORAD_CAT_ID   = 66909
ELEMENT_SET_NO = 999
REV_AT_EPOCH   = 267
BSTAR          = .79912E-3
MEAN_MOTION_DOT = .49748E-3
MEAN_MOTION_DDOT = 0

CCSDS_OMM_VERS = 2.0
CREATION_DATE  = 
ORIGINATOR     = 

OBJECT_NAME    = 1998-067XW
OBJECT_ID      = 1998-067XW
CENTER_NAME    = EARTH
REF_FRAME      = TEME
TIME_SYSTEM    = UTC
MEAN_ELEMENT_THEORY = SGP/SGP4

EPOCH          = 2025-12-19T13:10:35.176800
MEAN_MOTION    = 15.52526300
ECCENTRICITY   = .0004382
INCLINATION    = 51.6305
RA_OF_ASC_NODE = 108.5102
ARG_OF_PERICENTER = 243.3936
MEAN_ANOMALY   = 116.6605

EPHEMERIS_TYPE = 0
CLASSIFICATION_TYPE = U
NORAD_CAT_ID   = 66910
ELEMENT_SET_NO = 999
REV_AT_EPOCH   = 267
BSTAR          = .69409E-3
MEAN_MOTION_DOT = .4313E-3
MEAN_MOTION_DDOT = 0

CCSDS_OMM_VERS = 2.0
CREATION_DATE  = 
ORIGINATOR     = 

OBJECT_NAME    = 1998-067XX
OBJECT_ID      = 1998-067XX
CENTER_NAME    = EARTH
REF_FRAME      = TEME
TIME_SYSTEM    = UTC
MEAN_ELEMENT_THEORY = SGP/SGP4

EPOCH          = 2025-12-19T19:18:04.960512
MEAN_MOTION    = 15.52964022
ECCENTRICITY   = .00039341
INCLINATION    = 51.6304
RA_OF_ASC_NODE = 107.2150
ARG_OF_PERICENTER = 254.2011
MEAN_ANOMALY   = 105.8545

EPHEMERIS_TYPE = 0
CLASSIFICATION_TYPE = U
NORAD_CAT_ID   = 66911
ELEMENT_SET_NO = 999
REV_AT_EPOCH   = 270
BSTAR          = .82358587E-3
MEAN_MOTION_DOT = .52143E-3
MEAN_MOTION_DDOT = 0

CCSDS_OMM_VERS = 2.0
CREATION_DATE  = 
ORIGINATOR     = 

OBJECT_NAME    = 1998-067XY
OBJECT_ID      = 1998-067XY
CENTER_NAME    = EARTH
REF_FRAME      = TEME
TIME_SYSTEM    = UTC
MEAN_ELEMENT_THEORY = SGP/SGP4

EPOCH          = 2025-12-19T14:52:14.043072
MEAN_MOTION    = 15.51780846
ECCENTRICITY   = .0004012
INCLINATION    = 51.6307
RA_OF_ASC_NODE = 108.2310
ARG_OF_PERICENTER = 260.8810
MEAN_ANOMALY   = 99.1725

EPHEMERIS_TYPE = 0
CLASSIFICATION_TYPE = U
NORAD_CAT_ID   = 66912
ELEMENT_SET_NO = 999
REV_AT_EPOCH   = 267
BSTAR          = .63264E-3
MEAN_MOTION_DOT = .38197E-3
MEAN_MOTION_DDOT = 0

